[
  {
    "OBJECT_NAME": "STARLINK-3744",
    "OBJECT_ID": "22041AV",
    "EPOCH": "2025-11-11T06:32:52.353024",
    "MEAN_MOTION": 15.08848618,
    "ECCENTRICITY": 0.0001642,
    "INCLINATION": 53.2167,
    "RA_OF_ASC_NODE": 260.7122,
    "ARG_OF_PERICENTER": 103.5977,
    "MEAN_ANOMALY": 256.5198,
    "EPHEMERIS_TYPE": 0,
    "CLASSIFICATION_TYPE": "U",
    "NORAD_CAT_ID": 52304,
    "ELEMENT_SET_NO": 999,
    "REV_AT_EPOCH": 19676,
    "BSTAR": 0.00017633,
    "MEAN_MOTION_DOT": 2.52e-05,
    "MEAN_MOTION_DDOT": 0.0,
    "TLE_LINE1": "1 52304U 22041AV  25315.27282816  .00002520  00000+0  17633-3 0  9996",
    "TLE_LINE2": "2 52304  53.2167 260.7122 0001642 103.5977 256.5198 15.08848618196769",
    "COMMENT": "Grouped by shell and plane from TLE"
  },
  {
    "OBJECT_NAME": "STARLINK-3747",
    "OBJECT_ID": "22041AX",
    "EPOCH": "2025-11-11T06:27:34.592832",
    "MEAN_MOTION": 15.08847319,
    "ECCENTRICITY": 0.0001505,
    "INCLINATION": 53.2177,
    "RA_OF_ASC_NODE": 260.7288,
    "ARG_OF_PERICENTER": 93.4027,
    "MEAN_ANOMALY": 266.7137,
    "EPHEMERIS_TYPE": 0,
    "CLASSIFICATION_TYPE": "U",
    "NORAD_CAT_ID": 52306,
    "ELEMENT_SET_NO": 999,
    "REV_AT_EPOCH": 19798,
    "BSTAR": 0.00014696000000000002,
    "MEAN_MOTION_DOT": 2.052e-05,
    "MEAN_MOTION_DDOT": 0.0,
    "TLE_LINE1": "1 52306U 22041AX  25315.26915038  .00002052  00000+0  14696-3 0  9992",
    "TLE_LINE2": "2 52306  53.2177 260.7288 0001505  93.4027 266.7137 15.08847319197984",
    "COMMENT": "Grouped by shell and plane from TLE"
  },
  {
    "OBJECT_NAME": "STARLINK-3756",
    "OBJECT_ID": "22041BA",
    "EPOCH": "2025-11-11T06:22:17.340672",
    "MEAN_MOTION": 15.08842491,
    "ECCENTRICITY": 0.0001668,
    "INCLINATION": 53.2172,
    "RA_OF_ASC_NODE": 260.7449,
    "ARG_OF_PERICENTER": 100.0414,
    "MEAN_ANOMALY": 260.0766,
    "EPHEMERIS_TYPE": 0,
    "CLASSIFICATION_TYPE": "U",
    "NORAD_CAT_ID": 52309,
    "ELEMENT_SET_NO": 999,
    "REV_AT_EPOCH": 19798,
    "BSTAR": 0.00015984000000000001,
    "MEAN_MOTION_DOT": 2.257e-05,
    "MEAN_MOTION_DDOT": 0.0,
    "TLE_LINE1": "1 52309U 22041BA  25315.26547848  .00002257  00000+0  15984-3 0  9993",
    "TLE_LINE2": "2 52309  53.2172 260.7449 0001668 100.0414 260.0766 15.08842491197987",
    "COMMENT": "Grouped by shell and plane from TLE"
  },
  {
    "OBJECT_NAME": "STARLINK-3688",
    "OBJECT_ID": "22041BB",
    "EPOCH": "2025-11-11T03:06:13.695552",
    "MEAN_MOTION": 15.08839864,
    "ECCENTRICITY": 0.000144,
    "INCLINATION": 53.2171,
    "RA_OF_ASC_NODE": 261.4228,
    "ARG_OF_PERICENTER": 90.083,
    "MEAN_ANOMALY": 270.0328,
    "EPHEMERIS_TYPE": 0,
    "CLASSIFICATION_TYPE": "U",
    "NORAD_CAT_ID": 52310,
    "ELEMENT_SET_NO": 999,
    "REV_AT_EPOCH": 19796,
    "BSTAR": 6.6203e-05,
    "MEAN_MOTION_DOT": 7.66e-06,
    "MEAN_MOTION_DDOT": 0.0,
    "TLE_LINE1": "1 52310U 22041BB  25315.12932518  .00000766  00000+0  66203-4 0  9996",
    "TLE_LINE2": "2 52310  53.2171 261.4228 0001440  90.0830 270.0328 15.08839864197962",
    "COMMENT": "Grouped by shell and plane from TLE"
  },
  {
    "OBJECT_NAME": "STARLINK-3750",
    "OBJECT_ID": "22041BC",
    "EPOCH": "2025-11-11T03:00:54.452736",
    "MEAN_MOTION": 15.08855182,
    "ECCENTRICITY": 0.0001366,
    "INCLINATION": 53.2164,
    "RA_OF_ASC_NODE": 261.3735,
    "ARG_OF_PERICENTER": 89.873,
    "MEAN_ANOMALY": 270.2419,
    "EPHEMERIS_TYPE": 0,
    "CLASSIFICATION_TYPE": "U",
    "NORAD_CAT_ID": 52311,
    "ELEMENT_SET_NO": 999,
    "REV_AT_EPOCH": 19796,
    "BSTAR": 0.00029865,
    "MEAN_MOTION_DOT": 4.47e-05,
    "MEAN_MOTION_DDOT": 0.0,
    "TLE_LINE1": "1 52311U 22041BC  25315.12563024  .00004470  00000+0  29865-3 0  9997",
    "TLE_LINE2": "2 52311  53.2164 261.3735 0001366  89.8730 270.2419 15.08855182197963",
    "COMMENT": "Grouped by shell and plane from TLE"
  },
  {
    "OBJECT_NAME": "STARLINK-3752",
    "OBJECT_ID": "22041BD",
    "EPOCH": "2025-11-11T06:48:47.380608",
    "MEAN_MOTION": 15.08841131,
    "ECCENTRICITY": 0.000137,
    "INCLINATION": 53.2174,
    "RA_OF_ASC_NODE": 260.6144,
    "ARG_OF_PERICENTER": 86.2502,
    "MEAN_ANOMALY": 273.8647,
    "EPHEMERIS_TYPE": 0,
    "CLASSIFICATION_TYPE": "U",
    "NORAD_CAT_ID": 52312,
    "ELEMENT_SET_NO": 999,
    "REV_AT_EPOCH": 19799,
    "BSTAR": 0.00013266,
    "MEAN_MOTION_DOT": 1.824e-05,
    "MEAN_MOTION_DDOT": 0.0,
    "TLE_LINE1": "1 52312U 22041BD  25315.28388172  .00001824  00000+0  13266-3 0  9992",
    "TLE_LINE2": "2 52312  53.2174 260.6144 0001370  86.2502 273.8647 15.08841131197998",
    "COMMENT": "Grouped by shell and plane from TLE"
  },
  {
    "OBJECT_NAME": "STARLINK-3749",
    "OBJECT_ID": "22041BE",
    "EPOCH": "2025-11-11T03:43:19.024320",
    "MEAN_MOTION": 15.08844921,
    "ECCENTRICITY": 0.0001568,
    "INCLINATION": 53.2168,
    "RA_OF_ASC_NODE": 261.2438,
    "ARG_OF_PERICENTER": 103.3097,
    "MEAN_ANOMALY": 256.807,
    "EPHEMERIS_TYPE": 0,
    "CLASSIFICATION_TYPE": "U",
    "NORAD_CAT_ID": 52313,
    "ELEMENT_SET_NO": 999,
    "REV_AT_EPOCH": 19797,
    "BSTAR": 0.00030194,
    "MEAN_MOTION_DOT": 4.521e-05,
    "MEAN_MOTION_DDOT": 0.0,
    "TLE_LINE1": "1 52313U 22041BE  25315.15508130  .00004521  00000+0  30194-3 0  9993",
    "TLE_LINE2": "2 52313  53.2168 261.2438 0001568 103.3097 256.8070 15.08844921197973",
    "COMMENT": "Grouped by shell and plane from TLE"
  },
  {
    "OBJECT_NAME": "STARLINK-4260",
    "OBJECT_ID": "22076A",
    "EPOCH": "2025-11-11T06:34:52.047264",
    "MEAN_MOTION": 15.0885722,
    "ECCENTRICITY": 0.0001502,
    "INCLINATION": 53.2165,
    "RA_OF_ASC_NODE": 265.7066,
    "ARG_OF_PERICENTER": 92.837,
    "MEAN_ANOMALY": 267.2794,
    "EPHEMERIS_TYPE": 0,
    "CLASSIFICATION_TYPE": "U",
    "NORAD_CAT_ID": 52986,
    "ELEMENT_SET_NO": 999,
    "REV_AT_EPOCH": 18496,
    "BSTAR": 0.00034972,
    "MEAN_MOTION_DOT": 5.285e-05,
    "MEAN_MOTION_DDOT": 0.0,
    "TLE_LINE1": "1 52986U 22076A   25315.27421351  .00005285  00000+0  34972-3 0  9995",
    "TLE_LINE2": "2 52986  53.2165 265.7066 0001502  92.8370 267.2794 15.08857220184966",
    "COMMENT": "Grouped by shell and plane from TLE"
  },
  {
    "OBJECT_NAME": "STARLINK-4291",
    "OBJECT_ID": "22076C",
    "EPOCH": "2025-11-11T06:29:33.884448",
    "MEAN_MOTION": 15.08852018,
    "ECCENTRICITY": 0.000159,
    "INCLINATION": 53.2181,
    "RA_OF_ASC_NODE": 265.7258,
    "ARG_OF_PERICENTER": 95.7359,
    "MEAN_ANOMALY": 264.3815,
    "EPHEMERIS_TYPE": 0,
    "CLASSIFICATION_TYPE": "U",
    "NORAD_CAT_ID": 52988,
    "ELEMENT_SET_NO": 999,
    "REV_AT_EPOCH": 18496,
    "BSTAR": 0.0,
    "MEAN_MOTION_DOT": -5.86e-06,
    "MEAN_MOTION_DDOT": 0.0,
    "TLE_LINE1": "1 52988U 22076C   25315.27053107 -.00000586  00000+0 -18693-4 0  9991",
    "TLE_LINE2": "2 52988  53.2181 265.7258 0001590  95.7359 264.3815 15.08852018184967",
    "COMMENT": "Grouped by shell and plane from TLE"
  },
  {
    "OBJECT_NAME": "STARLINK-4264",
    "OBJECT_ID": "22076H",
    "EPOCH": "2025-11-11T06:24:15.598080",
    "MEAN_MOTION": 15.08855087,
    "ECCENTRICITY": 0.0001263,
    "INCLINATION": 53.2169,
    "RA_OF_ASC_NODE": 265.7401,
    "ARG_OF_PERICENTER": 86.5821,
    "MEAN_ANOMALY": 273.5315,
    "EPHEMERIS_TYPE": 0,
    "CLASSIFICATION_TYPE": "U",
    "NORAD_CAT_ID": 52993,
    "ELEMENT_SET_NO": 999,
    "REV_AT_EPOCH": 18496,
    "BSTAR": 0.00018129000000000002,
    "MEAN_MOTION_DOT": 2.6e-05,
    "MEAN_MOTION_DDOT": 0.0,
    "TLE_LINE1": "1 52993U 22076H   25315.26684720  .00002600  00000+0  18129-3 0  9997",
    "TLE_LINE2": "2 52993  53.2169 265.7401 0001263  86.5821 273.5315 15.08855087184964",
    "COMMENT": "Grouped by shell and plane from TLE"
  },
  {
    "OBJECT_NAME": "STARLINK-4256",
    "OBJECT_ID": "22076J",
    "EPOCH": "2025-11-11T03:08:11.905440",
    "MEAN_MOTION": 15.08844582,
    "ECCENTRICITY": 0.0001298,
    "INCLINATION": 53.2169,
    "RA_OF_ASC_NODE": 266.3513,
    "ARG_OF_PERICENTER": 89.8138,
    "MEAN_ANOMALY": 270.3003,
    "EPHEMERIS_TYPE": 0,
    "CLASSIFICATION_TYPE": "U",
    "NORAD_CAT_ID": 52994,
    "ELEMENT_SET_NO": 999,
    "REV_AT_EPOCH": 18494,
    "BSTAR": 8.223e-05,
    "MEAN_MOTION_DOT": 1.021e-05,
    "MEAN_MOTION_DDOT": 0.0,
    "TLE_LINE1": "1 52994U 22076J   25315.13069335  .00001021  00000+0  82230-4 0  9994",
    "TLE_LINE2": "2 52994  53.2169 266.3513 0001298  89.8138 270.3003 15.08844582184946",
    "COMMENT": "Grouped by shell and plane from TLE"
  },
  {
    "OBJECT_NAME": "STARLINK-4296",
    "OBJECT_ID": "22076K",
    "EPOCH": "2025-11-11T04:32:59.184960",
    "MEAN_MOTION": 15.08848377,
    "ECCENTRICITY": 0.0001494,
    "INCLINATION": 53.2178,
    "RA_OF_ASC_NODE": 266.0892,
    "ARG_OF_PERICENTER": 90.5321,
    "MEAN_ANOMALY": 269.5843,
    "EPHEMERIS_TYPE": 0,
    "CLASSIFICATION_TYPE": "U",
    "NORAD_CAT_ID": 52995,
    "ELEMENT_SET_NO": 999,
    "REV_AT_EPOCH": 18495,
    "BSTAR": 0.00019256,
    "MEAN_MOTION_DOT": 2.779e-05,
    "MEAN_MOTION_DDOT": 0.0,
    "TLE_LINE1": "1 52995U 22076K   25315.18957390  .00002779  00000+0  19256-3 0  9995",
    "TLE_LINE2": "2 52995  53.2178 266.0892 0001494  90.5321 269.5843 15.08848377184954",
    "COMMENT": "Grouped by shell and plane from TLE"
  },
  {
    "OBJECT_NAME": "STARLINK-4295",
    "OBJECT_ID": "22076L",
    "EPOCH": "2025-11-11T06:52:11.772768",
    "MEAN_MOTION": 15.0884388,
    "ECCENTRICITY": 0.0001666,
    "INCLINATION": 53.2169,
    "RA_OF_ASC_NODE": 265.9345,
    "ARG_OF_PERICENTER": 90.7148,
    "MEAN_ANOMALY": 269.4035,
    "EPHEMERIS_TYPE": 0,
    "CLASSIFICATION_TYPE": "U",
    "NORAD_CAT_ID": 52996,
    "ELEMENT_SET_NO": 999,
    "REV_AT_EPOCH": 18496,
    "BSTAR": 9.833900000000001e-05,
    "MEAN_MOTION_DOT": 1.278e-05,
    "MEAN_MOTION_DDOT": 0.0,
    "TLE_LINE1": "1 52996U 22076L   25315.28624737  .00001278  00000+0  98339-4 0  9996",
    "TLE_LINE2": "2 52996  53.2169 265.9345 0001666  90.7148 269.4035 15.08843880184963",
    "COMMENT": "Grouped by shell and plane from TLE"
  }
]